$$SOE
2460721.500000000, A.D. 2025-Feb-15 00:00:00.0000, -1.929492723002467E+08, 4.095405634609671E+08, -1.237055723941654E+06,
2460728.500000000, A.D. 2025-Feb-22 00:00:00.0000, -2.018347838808514E+08, 4.064246656960837E+08, -2.031009908469886E+06,
2460735.500000000, A.D. 2025-Mar-01 00:00:00.0000, -2.106153102472671E+08, 4.030977057655026E+08, -2.823910679835200E+06,
2460742.500000000, A.D. 2025-Mar-08 00:00:00.0000, -2.192870284894885E+08, 3.995628240801548E+08, -3.615355849006265E+06,
2460749.500000000, A.D. 2025-Mar-15 00:00:00.0000, -2.278461938489359E+08, 3.958231766177889E+08, -4.404948929040015E+06,
2460756.500000000, A.D. 2025-Mar-22 00:00:00.0000, -2.362891389753655E+08, 3.918819347632944E+08, -5.192298679121435E+06,
2460763.500000000, A.D. 2025-Mar-29 00:00:00.0000, -2.446122719143083E+08, 3.877422830282484E+08, -5.977018960533351E+06,
2460770.500000000, A.D. 2025-Apr-05 00:00:00.0000, -2.528120724995508E+08, 3.834074177802228E+08, -6.758728678323388E+06,
2460777.500000000, A.D. 2025-Apr-12 00:00:00.0000, -2.608850890758294E+08, 3.788805470812165E+08, -7.537051624241814E+06,
2460784.500000000, A.D. 2025-Apr-19 00:00:00.0000, -2.688279357364962E+08, 3.741648907481499E+08, -8.311616276276767E+06,
2460791.500000000, A.D. 2025-Apr-26 00:00:00.0000, -2.766372898025301E+08, 3.692636804261150E+08, -9.082055596569315E+06,
2460798.500000000, A.D. 2025-May-03 00:00:00.0000, -2.843098894278240E+08, 3.641801596880340E+08, -9.848006836800590E+06,
2460805.500000000, A.D. 2025-May-10 00:00:00.0000, -2.918425313009123E+08, 3.589175841646101E+08, -1.060911135317002E+07,
2460812.500000000, A.D. 2025-May-17 00:00:00.0000, -2.992320684051570E+08, 3.534792216592856E+08, -1.136501443784285E+07,
2460819.500000000, A.D. 2025-May-24 00:00:00.0000, -3.064754076621766E+08, 3.478683521898239E+08, -1.211536518736561E+07,
2460826.500000000, A.D. 2025-May-31 00:00:00.0000, -3.135695070395271E+08, 3.420882682637712E+08, -1.285981642098865E+07,
2460833.500000000, A.D. 2025-Jun-07 00:00:00.0000, -3.205113725229788E+08, 3.361422765893036E+08, -1.359802451371394E+07,
2460840.500000000, A.D. 2025-Jun-14 00:00:00.0000, -3.272980573179537E+08, 3.300337005528752E+08, -1.432964898191293E+07,
2460847.500000000, A.D. 2025-Jun-21 00:00:00.0000, -3.339266620613080E+08, 3.237658801908971E+08, -1.505435220051700E+07,
2460854.500000000, A.D. 2025-Jun-28 00:00:00.0000, -3.403943329123788E+08, 3.173421714158074E+08, -1.577179939405563E+07,
2460861.500000000, A.D. 2025-Jul-05 00:00:00.0000, -3.466982590405856E+08, 3.107659466497488E+08, -1.648165858611579E+07,
2460868.500000000, A.D. 2025-Jul-12 00:00:00.0000, -3.528356707012512E+08, 3.040405960600396E+08, -1.718360046403420E+07,
2460875.500000000, A.D. 2025-Jul-19 00:00:00.0000, -3.588038377091833E+08, 2.971695288204757E+08, -1.787729822320810E+07,
2460882.500000000, A.D. 2025-Jul-26 00:00:00.0000, -3.646000680992277E+08, 2.901561743403381E+08, -1.856242741477121E+07,
2460889.500000000, A.D. 2025-Aug-02 00:00:00.0000, -3.702217069080178E+08, 2.830039834813377E+08, -1.923866580073515E+07,
2460896.500000000, A.D. 2025-Aug-09 00:00:00.0000, -3.756661350534022E+08, 2.757164297468114E+08, -1.990569321981010E+07,
2460903.500000000, A.D. 2025-Aug-16 00:00:00.0000, -3.809307682346606E+08, 2.682970103791540E+08, -2.056319147597907E+07,
2460910.500000000, A.D. 2025-Aug-23 00:00:00.0000, -3.860130555610460E+08, 2.607492473812832E+08, -2.121084427512489E+07,
2460917.500000000, A.D. 2025-Aug-30 00:00:00.0000, -3.909104775801190E+08, 2.530766891753864E+08, -2.184833718131232E+07,
2460924.500000000, A.D. 2025-Sep-06 00:00:00.0000, -3.956205451254327E+08, 2.452829138985705E+08, -2.247535738080655E+07,
2460931.500000000, A.D. 2025-Sep-13 00:00:00.0000, -4.001408006567578E+08, 2.373715318533300E+08, -2.309159330366072E+07,
2460938.500000000, A.D. 2025-Sep-20 00:00:00.0000, -4.044688188199970E+08, 2.293461854696558E+08, -2.369673453736662E+07,
2460945.500000000, A.D. 2025-Sep-27 00:00:00.0000, -4.086022051676741E+08, 2.212105498892450E+08, -2.429047187490586E+07,
2460952.500000000, A.D. 2025-Oct-04 00:00:00.0000, -4.125385950590860E+08, 2.129683347104904E+08, -2.487249726823595E+07,
2460959.500000000, A.D. 2025-Oct-11 00:00:00.0000, -4.162756531161914E+08, 2.046232859528450E+08, -2.544250373033205E+07,
2460966.500000000, A.D. 2025-Oct-18 00:00:00.0000, -4.198110729520116E+08, 1.961791879674243E+08, -2.600018523423045E+07,
2460973.500000000, A.D. 2025-Oct-25 00:00:00.0000, -4.231425770319216E+08, 1.876398653047056E+08, -2.654523662076443E+07,
2460980.500000000, A.D. 2025-Nov-01 00:00:00.0000, -4.262679166293265E+08, 1.790091845536602E+08, -2.707735351719483E+07,
2460987.500000000, A.D. 2025-Nov-08 00:00:00.0000, -4.291848718439807E+08, 1.702910561196721E+08, -2.759623227261903E+07,
2460994.500000000, A.D. 2025-Nov-15 00:00:00.0000, -4.318912515396095E+08, 1.614894358823857E+08, -2.810156992903567E+07,
2461001.500000000, A.D. 2025-Nov-22 00:00:00.0000, -4.343848928032277E+08, 1.526083269544784E+08, -2.859306424777187E+07,
2461008.500000000, A.D. 2025-Nov-29 00:00:00.0000, -4.366636600840896E+08, 1.436517826777341E+08, -2.907041368522887E+07,
2461015.500000000, A.D. 2025-Dec-06 00:00:00.0000, -4.387254462947541E+08, 1.346239107216284E+08, -2.953331712098199E+07,
2461022.500000000, A.D. 2025-Dec-13 00:00:00.0000, -4.405681754462060E+08, 1.255288749160451E+08, -2.998147365430376E+07,
2461029.500000000, A.D. 2025-Dec-20 00:00:00.0000, -4.421898033270130E+08, 1.163708958431832E+08, -3.041458270615646E+07,
2461036.500000000, A.D. 2025-Dec-27 00:00:00.0000, -4.435883173026035E+08, 1.071542527792575E+08, -3.083234411628218E+07,
2461043.500000000, A.D. 2026-Jan-03 00:00:00.0000, -4.447617366994030E+08, 9.788328636921014E+07, -3.123445815229198E+07,
2461050.500000000, A.D. 2026-Jan-10 00:00:00.0000, -4.457081136710386E+08, 8.856240135584606E+07, -3.162062549698052E+07,
2461057.500000000, A.D. 2026-Jan-17 00:00:00.0000, -4.464255343205059E+08, 7.919606927250440E+07, -3.199054724316431E+07,
2461064.500000000, A.D. 2026-Jan-24 00:00:00.0000, -4.469121200068236E+08, 6.978883112211962E+07, -3.234392490172997E+07,
2461071.500000000, A.D. 2026-Jan-31 00:00:00.0000, -4.471660288197615E+08, 6.034530003506251E+07, -3.268046042609733E+07,
2461078.500000000, A.D. 2026-Feb-07 00:00:00.0000, -4.471854571688349E+08, 5.087016384798611E+07, -3.299985626395081E+07,
2461085.500000000, A.D. 2026-Feb-14 00:00:00.0000, -4.469686412417279E+08, 4.136818758773206E+07, -3.330181546128824E+07,
2461092.500000000, A.D. 2026-Feb-21 00:00:00.0000, -4.465138579530880E+08, 3.184421643630794E+07, -3.358604180777979E+07,
2461099.500000000, A.D. 2026-Feb-28 00:00:00.0000, -4.458194264773893E+08, 2.230318032856490E+07, -3.385223983033741E+07,
2461106.500000000, A.D. 2026-Mar-07 00:00:00.0000, -4.448837124349170E+08, 1.275009822983827E+07, -3.410011460643087E+07,
2461113.500000000, A.D. 2026-Mar-14 00:00:00.0000, -4.437051319670259E+08, 3.190079758669598E+06, -3.432937184352172E+07,
2461120.500000000, A.D. 2026-Mar-21 00:00:00.0000, -4.422821539272710E+08, -6.371672949328369E+06, -3.453971815181348E+07,
2461127.500000000, A.D. 2026-Mar-28 00:00:00.0000, -4.406133022060065E+08, -1.592986211250696E+07, -3.473086124218541E+07,
2461134.500000000, A.D. 2026-Apr-04 00:00:00.0000, -4.386971588031805E+08, -2.547909088172572E+07, -3.490251007366575E+07,
2461141.500000000, A.D. 2026-Apr-11 00:00:00.0000, -4.365323673887419E+08, -3.501385999355169E+07, -3.505437500615370E+07,
2461148.500000000, A.D. 2026-Apr-18 00:00:00.0000, -4.341176372052605E+08, -4.452856451234619E+07, -3.518616797470788E+07,
2461155.500000000, A.D. 2026-Apr-25 00:00:00.0000, -4.314517472812756E+08, -5.401749065504125E+07, -3.529760268962227E+07,
2461162.500000000, A.D. 2026-May-02 00:00:00.0000, -4.285335509397874E+08, -6.347481273772378E+07, -3.538839486891548E+07,
2461169.500000000, A.D. 2026-May-09 00:00:00.0000, -4.253619804930984E+08, -7.289459032066697E+07, -3.545826252162307E+07,
2461176.500000000, A.D. 2026-May-16 00:00:00.0000, -4.219360517622634E+08, -8.227076542492117E+07, -3.550692630690181E+07,
2461183.500000000, A.D. 2026-May-23 00:00:00.0000, -4.182548683856161E+08, -9.159715881093153E+07, -3.553410989185378E+07,
2461190.500000000, A.D. 2026-May-30 00:00:00.0000, -4.143176280114540E+08, -1.008674650146490E+08, -3.553954009322979E+07,
2461197.500000000, A.D. 2026-Jun-06 00:00:00.0000, -4.101236307110701E+08, -1.100752494321969E+08, -3.552294704390229E+07,
2461204.500000000, A.D. 2026-Jun-13 00:00:00.0000, -4.056722859668787E+08, -1.192139472720673E+08, -3.548406470673957E+07,
2461211.500000000, A.D. 2026-Jun-20 00:00:00.0000, -4.009631187549354E+08, -1.282768614664885E+08, -3.542263145277366E+07,
2461218.500000000, A.D. 2026-Jun-27 00:00:00.0000, -3.959957764356136E+08, -1.372571599023825E+08, -3.533839057723114E+07,
2461225.500000000, A.D. 2026-Jul-04 00:00:00.0000, -3.907700364678235E+08, -1.461478727717324E+08, -3.523109081857540E+07,
2461232.500000000, A.D. 2026-Jul-11 00:00:00.0000, -3.852858147090620E+08, -1.549418902022519E+08, -3.510048691684313E+07,
2461239.500000000, A.D. 2026-Jul-18 00:00:00.0000, -3.795431742258218E+08, -1.636319601755998E+08, -3.494634022030887E+07,
2461246.500000000, A.D. 2026-Jul-25 00:00:00.0000, -3.735423346087068E+08, -1.722106867671373E+08, -3.476841934568539E+07,
2461253.500000000, A.D. 2026-Aug-01 00:00:00.0000, -3.672836817642079E+08, -1.806705287947728E+08, -3.456650090376884E+07,
2461260.500000000, A.D. 2026-Aug-08 00:00:00.0000, -3.607677779879447E+08, -1.890037989542901E+08, -3.434037031663789E+07,
2461267.500000000, A.D. 2026-Aug-15 00:00:00.0000, -3.539953719218781E+08, -1.972026630347973E+08, -3.408982273071156E+07,
2461274.500000000, A.D. 2026-Aug-22 00:00:00.0000, -3.469674091707522E+08, -2.052591380405717E+08, -3.381466385865442E+07,
2461281.500000000, A.D. 2026-Aug-29 00:00:00.0000, -3.396850458779318E+08, -2.131650906448697E+08, -3.351471065489416E+07,
$$EOE